[{"OBJECT_NAME":"STARLINK-35364","OBJECT_ID":"2025-221T","EPOCH":"2026-03-09T13:36:26.824032","MEAN_MOTION":15.30160346,"ECCENTRICITY":0.0001812,"INCLINATION":53.1605,"RA_OF_ASC_NODE":88.979,"ARG_OF_PERICENTER":90.1398,"MEAN_ANOMALY":269.981,"EPHEMERIS_TYPE":0,"CLASSIFICATION_TYPE":"U","NORAD_CAT_ID":65840,"ELEMENT_SET_NO":999,"REV_AT_EPOCH":2471,"BSTAR":0.001189,"MEAN_MOTION_DOT":0.00034978,"MEAN_MOTION_DDOT":0},{"OBJECT_NAME":"COSMOS 1869","OBJECT_ID":"1987-062A","EPOCH":"2026-03-09T20:30:29.271744","MEAN_MOTION":15.35392408,"ECCENTRICITY":0.00185772,"INCLINATION":82.5127,"RA_OF_ASC_NODE":201.6716,"ARG_OF_PERICENTER":61.4986,"MEAN_ANOMALY":298.8125,"EPHEMERIS_TYPE":0,"CLASSIFICATION_TYPE":"U","NORAD_CAT_ID":18214,"ELEMENT_SET_NO":999,"REV_AT_EPOCH":8931,"BSTAR":0.00042037944,"MEAN_MOTION_DOT":0.00014573,"MEAN_MOTION_DDOT":0}]
